0 CZ-4 DEB
1 35374U 06046G   13282.28469360  .00006036  00000-0  33537-3 0  9755
2 35374 097.5430 292.3049 0076984 290.9869 192.3661 15.11544020379750
0 CZ-4 DEB
1 35374U 06046G   13283.72940027  .00006582  00000-0  36524-3 0  9765
2 35374 097.5431 293.7304 0076923 285.9775 133.8904 15.11555352379966
0 CZ-4 DEB
1 35374U 06046G   13286.25778282  .00004246  00000-0  23705-3 0  9782
2 35374 097.5431 296.2261 0076667 277.0540 212.6824 15.11579972380359
0 CZ-4 DEB
1 35374U 06046G   13287.51455144  .00004538  00000-0  25301-3 0  9790
2 35374 097.5425 297.4668 0076659 272.6061 211.7740 15.11591116380548
0 CZ-4 DEB
1 35374U 06046G   13288.57398781  .00005242  00000-0  29145-3 0  9805
2 35374 097.5417 298.5126 0076721 268.8781 217.0490 15.11605014380708
0 CZ-4 DEB
1 35374U 06046G   13290.55901873  .00006469  00000-0  35842-3 0  9812
2 35374 097.5408 300.4719 0076885 261.9275 219.3318 15.11620002380991
0 CZ-4 DEB
1 35374U 06046G   13292.00267826  .00005711  00000-0  31676-3 0  9828
2 35374 097.5409 301.8964 0076914 256.8712 155.6184 15.11633733381215
0 CZ-4 DEB
1 35374U 06046G   13293.27459164  .00006021  00000-0  33363-3 0  9837
2 35374 097.5413 303.1515 0076874 252.3953 237.3572 15.11647501381419
0 CZ-4 DEB
1 35374U 06046G   13294.53107946  .00006426  00000-0  35569-3 0  9845
2 35374 097.5418 304.3914 0076806 247.9491 235.2337 15.11661141381605
0 CZ-4 DEB
1 35374U 06046G   13296.04296502  .00005794  00000-0  32098-3 0  9852
2 35374 097.5422 305.8836 0076817 242.5746 183.1049 15.11676357381825
